OBJECT_NAME,OBJECT_ID,EPOCH,MEAN_MOTION,ECCENTRICITY,INCLINATION,RA_OF_ASC_NODE,ARG_OF_PERICENTER,MEAN_ANOMALY,EPHEMERIS_TYPE,CLASSIFICATION_TYPE,NORAD_CAT_ID,ELEMENT_SET_NO,REV_AT_EPOCH,BSTAR,MEAN_MOTION_DOT,MEAN_MOTION_DDOT
STARLINK-33949,2025-110K,2026-06-08T17:23:29.714208,15.31715538,.0001478,53.1608,323.6829,74.6850,285.4314,0,U,64105,999,5982,.69016E-3,.21123E-3,0
STARLINK-33970,2025-110L,2026-06-08T17:49:39.076032,15.34409658,.00012,53.1600,323.0883,99.6932,260.4206,0,U,64106,999,5983,.79425E-3,.26562E-3,0
STARLINK-33912,2025-110M,2026-06-08T17:10:04.323648,15.31708344,.0001267,53.1613,323.6237,64.4198,295.6935,0,U,64107,999,5982,.12204E-2,.37706E-3,0
STARLINK-34156,2025-110N,2026-06-08T18:36:48.942144,15.31716277,.0000987,53.1624,323.2869,99.2994,260.8119,0,U,64108,999,5983,.84636E-3,.26003E-3,0
STARLINK-34124,2025-110P,2026-06-08T18:30:05.409216,15.31727800,.0001204,53.1608,323.2601,82.7673,277.3466,0,U,64109,999,5983,.85683E-3,.2634E-3,0
STARLINK-34145,2025-110Q,2026-06-08T18:25:52.867200,15.34418761,.0001128,53.1625,322.5325,98.3430,261.7700,0,U,64110,999,5984,.11153E-2,.37516E-3,0
STARLINK-34148,2025-110R,2026-06-08T18:16:38.453088,15.31714136,.0000799,53.1599,323.2008,116.8449,243.2634,0,U,64111,999,5983,.11889E-2,.36726E-3,0
STARLINK-34136,2025-110S,2026-06-08T18:23:22.054272,15.31726260,.0001314,53.1606,323.2305,88.8662,271.2490,0,U,64112,999,5983,.76918E-3,.23599E-3,0
STARLINK-33839,2025-110T,2026-06-08T18:37:17.557824,15.31708956,.0001023,53.1627,323.2877,87.3767,272.7351,0,U,64113,999,5983,.75049E-3,.23002E-3,0
STARLINK-34064,2025-110U,2026-06-08T17:30:13.076064,15.31721929,.0001258,53.1608,323.7105,85.0267,275.0878,0,U,64114,999,5982,.86983E-3,.26742E-3,0
STARLINK-34067,2025-110V,2026-06-08T17:34:04.391328,15.33230958,.0000888,53.1625,323.0260,73.6666,286.4434,0,U,64115,999,5983,.94462E-3,.3051E-3,0
STARLINK-34080,2025-110W,2026-06-08T18:03:12.538080,15.31722240,.0001261,53.1583,323.1452,98.3828,261.7316,0,U,64116,999,5982,.79796E-3,.24495E-3,0
STARLINK-34122,2025-110X,2026-06-08T18:09:55.556928,15.31724638,.0000772,53.1583,323.1713,82.8271,277.2818,0,U,64117,999,5982,.88589E-3,.27247E-3,0
STARLINK-33964,2025-110Y,2026-06-08T17:16:46.365312,15.31721670,.0001169,53.1613,323.6511,79.3595,280.7538,0,U,64118,999,5982,.70536E-3,.21601E-3,0
STARLINK-34160,2025-110Z,2026-06-08T20:00:03.000384,15.49232980,.0001273,53.1592,319.2461,71.4626,357.1538,0,U,64119,999,589,.11796E-2,.65531E-3,0
STARLINK-34151,2025-110AA,2026-06-08T18:36:59.567616,15.30306959,.0001135,53.1629,323.9925,77.0476,283.0651,0,U,64120,999,5982,.10602E-2,.31277E-3,0
STARLINK-34189,2025-110AB,2026-06-08T18:32:38.180832,15.30214950,.0001321,53.1603,323.9732,89.5506,270.5646,0,U,64121,999,5982,.70488E-3,.20585E-3,0
STARLINK-33991,2025-110AC,2026-06-08T17:56:57.923232,15.31718586,.0001627,53.1610,323.1183,111.7500,248.3675,0,U,64122,999,5982,.76719E-3,.23531E-3,0
STARLINK-11727 [DTC],2025-111A,2026-06-08T02:13:58.079712,15.70879730,.00006382,42.9989,149.2509,266.6602,93.4192,0,U,64123,999,6085,.1473558E-2,.193417E-2,0
STARLINK-11724 [DTC],2025-111B,2026-06-08T19:46:48.021888,15.71042642,.0002342,42.9997,144.3948,234.4021,125.6629,0,U,64124,999,6097,.14322E-2,.189179E-2,0
STARLINK-11725 [DTC],2025-111C,2026-06-08T20:09:44.195040,15.71037632,.0001632,42.9969,144.5247,197.6888,162.3923,0,U,64125,999,6097,.13197E-2,.173919E-2,0
STARLINK-11717 [DTC],2025-111D,2026-06-07T21:23:59.391168,15.70889678,.00015574,42.9999,150.3123,269.7617,90.3072,0,U,64126,999,6077,.14669203E-2,.192604E-2,0
STARLINK-11721 [DTC],2025-111E,2026-06-08T20:00:03.000384,15.70849040,.0001351,43.0000,144.1131,273.7668,228.5879,0,U,64127,999,597,-.37526E-3,-.48338E-3,0
STARLINK-11722 [DTC],2025-111F,2026-06-08T00:00:04.000320,15.70855578,.00012638,43.0001,149.4356,265.1083,78.8213,0,U,64128,999,594,.51072061E-4,.6114E-4,0
STARLINK-11679 [DTC],2025-111G,2026-06-08T05:47:28.730400,15.70964541,.0000479,43.0005,147.7568,177.0723,183.0148,0,U,64129,999,6088,.14901E-2,.196365E-2,0
STARLINK-11735 [DTC],2025-111H,2026-06-08T20:02:05.193312,15.70985373,.0002512,43.0002,144.4764,233.7983,126.2653,0,U,64130,999,6082,.85655E-3,.111636E-2,0
STARLINK-11720 [DTC],2025-111J,2026-06-08T05:55:07.087584,15.70912242,.00014,43.0031,147.7980,253.6135,106.4578,0,U,64131,999,6083,.99467E-3,.129581E-2,0
STARLINK-11718 [DTC],2025-111K,2026-06-08T06:49:57.112320,15.70863426,.0002305,42.9995,148.1037,313.5841,46.4835,0,U,64132,999,6093,.68149E-3,.88019E-3,0
STARLINK-11716 [DTC],2025-111L,2026-06-08T08:00:04.000032,15.70837469,.0001612,43.0005,147.7231,268.8786,42.1211,0,U,64133,999,594,-.33033E-3,-.42614E-3,0
STARLINK-11714 [DTC],2025-111M,2026-06-07T06:38:47.095008,15.70853041,.0001033,42.9989,153.4161,240.2906,119.7858,0,U,64134,999,6073,.11792E-2,.153766E-2,0
STARLINK-11712 [DTC],2025-111N,2026-06-07T06:31:19.735680,15.70818631,.0001831,43.0004,154.2715,270.3603,89.7055,0,U,64135,999,6072,.1168E-2,.152064E-2,0
STARLINK-34254,2025-111P,2026-06-08T14:53:13.329024,15.27591486,.0003208,43.0081,284.0401,269.7309,90.3175,0,U,64136,999,5937,.83439E-3,.22779E-3,0
STARLINK-34230,2025-111Q,2026-06-08T20:00:03.000384,15.83100622,.0026247,42.9834,250.0499,20.5945,232.6580,0,U,64137,999,569,.94003E-3,.218389E-2,0
STARLINK-34129,2025-111R,2026-06-08T08:00:04.000032,15.27567806,.0001471,43.0021,286.1805,255.8488,105.2455,0,U,64138,999,588,.16303E-2,.44856E-3,0
STARLINK-34212,2025-111S,2026-06-07T15:35:39.571584,15.27593294,.00057127,42.9981,289.6482,108.3901,251.7572,0,U,64139,999,5922,.83190201E-3,.22718E-3,0
STARLINK-34149,2025-111T,2026-06-08T15:22:49.444320,15.27586335,.0002175,42.9980,284.1831,271.8646,88.1956,0,U,64140,999,5937,.66287E-3,.18027E-3,0
STARLINK-34054,2025-111U,2026-06-07T15:46:45.251616,15.27582296,.00008104,43.0012,289.7041,226.3006,133.7778,0,U,64141,999,5922,.11213302E-2,.30725E-3,0
STARLINK-34195,2025-111V,2026-06-08T15:02:28.213152,15.27592161,.00025,42.9964,284.0763,268.1755,91.8810,0,U,64142,999,5937,.62472E-3,.16976E-3,0
STARLINK-34133,2025-111W,2026-06-08T14:56:54.898368,15.27578040,.0002638,43.0006,284.0508,268.3052,91.7498,0,U,64143,999,5937,.69645E-3,.18952E-3,0
STARLINK-34181,2025-111X,2026-06-08T15:28:20.904096,15.27661954,.0000686,43.0228,284.2167,144.4525,215.6372,0,U,64144,999,5937,.16929E-2,.46733E-3,0
STARLINK-34186,2025-111Y,2026-06-08T15:41:19.696416,15.27593299,.0001505,43.0053,284.2845,263.3658,96.7022,0,U,64145,999,5937,.73593E-3,.20052E-3,0
STARLINK-34314,2025-112A,2026-06-08T17:12:13.921056,15.05654673,.0001586,97.3850,210.4921,135.0446,225.0910,0,U,64146,999,5700,.10413E-3,.1445E-4,0
STARLINK-33926,2025-112B,2026-06-08T10:13:32.944800,15.05654781,.0000364,97.3886,210.2739,196.5280,163.5936,0,U,64147,999,5696,.22578E-3,.3202E-4,0
STARLINK-34213,2025-112C,2026-06-08T17:24:12.370752,15.05641682,.0001714,97.3860,210.4816,89.1941,270.9482,0,U,64148,999,5700,.20481E-3,.2898E-4,0
STARLINK-33924,2025-112D,2026-06-08T17:36:09.343008,15.05662205,.0002331,97.3828,210.4688,113.6708,246.4764,0,U,64149,999,5700,.43456E-3,.622E-4,0
STARLINK-34209,2025-112E,2026-06-08T10:01:35.347872,15.05655362,.0001618,97.3897,210.2845,174.1654,185.9593,0,U,64150,999,5696,.19895E-3,.2814E-4,0
STARLINK-34338,2025-112F,2026-06-08T03:26:49.934400,15.05639945,.00017745,97.3952,210.0435,171.2603,188.8656,0,U,64151,999,5692,-.4164705E-3,-.606E-4,0
STARLINK-34348,2025-112G,2026-06-08T17:00:16.255872,15.05659876,.0001063,97.3857,210.5066,124.6767,235.4561,0,U,64152,999,5700,.33966E-3,.4848E-4,0
STARLINK-34345,2025-112H,2026-06-08T02:27:00.557856,15.05660756,.0001172,97.3870,209.9461,89.7476,270.3886,0,U,64153,999,5691,.41227E-3,.5897E-4,0
STARLINK-33945,2025-112J,2026-06-08T18:12:53.779392,15.05663902,.0001651,97.3867,219.0715,106.6896,253.4513,0,U,64154,999,5756,.43293E-3,.6197E-4,0
STARLINK-34346,2025-112K,2026-06-08T19:39:46.869408,15.05663004,.0001597,97.3863,210.6706,117.2727,242.8663,0,U,64155,999,5702,.53768E-3,.7711E-4,0
STARLINK-34277,2025-112L,2026-06-08T17:16:13.230048,15.05657638,.0001501,97.3857,210.4984,121.7852,238.3522,0,U,64156,999,5700,.27638E-3,.3933E-4,0
STARLINK-34166,2025-112N,2026-06-08T17:40:08.169888,15.05666481,.0000816,97.3838,210.4729,107.8597,252.2720,0,U,64158,999,5700,.50924E-3,.7301E-4,0
STARLINK-34344,2025-112P,2026-06-08T17:28:12.769248,15.05655963,.0001673,97.3853,210.4877,119.4061,240.7334,0,U,64159,999,5700,.33015E-3,.471E-4,0
STARLINK-34339,2025-112Q,2026-06-08T17:04:15.556224,15.05657096,.000114,97.3856,210.5116,121.5706,238.5632,0,U,64160,999,5700,.23177E-3,.3289E-4,0
STARLINK-34341,2025-112R,2026-06-08T00:43:19.997184,15.05663210,.00006654,97.3885,209.8961,146.5415,213.5855,0,U,64161,999,5690,.44428775E-3,.6361E-4,0
STARLINK-34317,2025-112S,2026-06-08T09:53:37.150656,15.05657351,.0001693,97.3863,210.3007,87.2120,272.9301,0,U,64162,999,5696,.25231E-3,.3585E-4,0
STARLINK-34340,2025-112T,2026-06-08T17:20:12.831072,15.05653822,.000153,97.3855,210.4952,92.0744,268.0658,0,U,64163,999,5700,.22201E-3,.3147E-4,0
STARLINK-34263,2025-112U,2026-06-08T17:08:14.752896,15.05661709,.0001629,97.3848,210.5073,144.7400,215.3936,0,U,64164,999,5700,.60943E-3,.8749E-4,0
STARLINK-33793,2025-112V,2026-06-08T02:34:59.295072,15.05657039,.00014701,97.3860,209.9470,101.5865,258.5528,0,U,64165,999,5691,.37620337E-3,.5375E-4,0
STARLINK-34313,2025-112W,2026-06-08T00:47:18.925152,15.05660601,.00013921,97.3885,209.8928,154.2784,205.8513,0,U,64166,999,5690,.30726292E-3,.438E-4,0
STARLINK-34309,2025-112X,2026-06-08T10:09:33.926976,15.05662877,.0001689,97.3894,210.2873,100.4101,259.7317,0,U,64167,999,5696,.51033E-3,.7316E-4,0
STARLINK-34303,2025-112Y,2026-06-08T03:34:47.493984,15.05644893,.00008531,97.3932,210.0475,167.1897,192.9352,0,U,64168,999,5692,-.2964957E-3,-.4332E-4,0
STARLINK-34175,2025-112Z,2026-06-08T17:32:10.091040,15.05663077,.0001965,97.3852,210.4830,100.1816,259.9633,0,U,64169,999,5700,.35871E-3,.5123E-4,0
